start=new Date('2021-12-20T00:00:00.000Z').valueOf();
sats=[{"OBJECT_TYPE":"PAYLOAD","APOAPSIS":"548.331","REF_FRAME":"TEME","NORAD_CAT_ID":"46153","LAUNCH_DATE":"2020-08-18","MEAN_ELEMENT_THEORY":"SGP4","INCLINATION":"53.0561","MEAN_ANOMALY":"304.4052","MEAN_MOTION_DDOT":"0.0000000000000","EPOCH":"2021-12-19T12:58:56.079840","SEMIMAJOR_AXIS":"6925.361","PERIAPSIS":"546.121","CLASSIFICATION_TYPE":"U","RCS_SIZE":"LARGE","ECCENTRICITY":"0.00015960","TIME_SYSTEM":"UTC","ARG_OF_PERICENTER":"55.7088","OBJECT_ID":"2020-057AN","REV_AT_EPOCH":"7405","EPHEMERIS_TYPE":"0","SITE":"AFETR","COUNTRY_CODE":"US","BSTAR":"0.00007875600000","TLE_LINE2":"2 46153  53.0561  15.1113 0001596  55.7088 304.4052 15.06395881 74057","TLE_LINE1":"1 46153U 20057AN  21353.54092685  .00000892  00000-0  78756-4 0  9992","MEAN_MOTION_DOT":"0.00000892","DECAY_DATE":null,"OBJECT_NAME":"STARLINK-1636","PERIOD":"95.592","GP_ID":"192010288","CENTER_NAME":"EARTH","RA_OF_ASC_NODE":"15.1113","FILE":"3244588","MEAN_MOTION":"15.06395881","ELEMENT_SET_NO":"999"},{"RA_OF_ASC_NODE":"23.8732","FILE":"3244825","ELEMENT_SET_NO":"999","MEAN_MOTION":"15.06402338","DECAY_DATE":null,"MEAN_MOTION_DOT":"0.00002644","CENTER_NAME":"EARTH","GP_ID":"192038870","OBJECT_NAME":"STARLINK-1642","PERIOD":"95.592","TLE_LINE2":"2 46154  53.0549  23.8732 0001878  67.6807 292.4381 15.06402338 73967","TLE_LINE1":"1 46154U 20057AP  21353.81644759  .00002644  00000-0  19631-3 0  9991","SITE":"AFETR","COUNTRY_CODE":"US","BSTAR":"0.00019631000000","TIME_SYSTEM":"UTC","ECCENTRICITY":"0.00018780","OBJECT_ID":"2020-057AP","ARG_OF_PERICENTER":"67.6807","RCS_SIZE":"LARGE","EPHEMERIS_TYPE":"0","REV_AT_EPOCH":"7396","EPOCH":"2021-12-19T19:35:41.071776","MEAN_MOTION_DDOT":"0.0000000000000","PERIAPSIS":"545.906","CLASSIFICATION_TYPE":"U","SEMIMAJOR_AXIS":"6925.341","LAUNCH_DATE":"2020-08-18","MEAN_ELEMENT_THEORY":"SGP4","INCLINATION":"53.0549","MEAN_ANOMALY":"292.4381","OBJECT_TYPE":"PAYLOAD","APOAPSIS":"548.507","REF_FRAME":"TEME","NORAD_CAT_ID":"46154"},{"NORAD_CAT_ID":"46155","REF_FRAME":"TEME","APOAPSIS":"548.521","OBJECT_TYPE":"PAYLOAD","MEAN_ANOMALY":"306.2421","INCLINATION":"53.0547","LAUNCH_DATE":"2020-08-18","MEAN_ELEMENT_THEORY":"SGP4","SEMIMAJOR_AXIS":"6925.372","PERIAPSIS":"545.952","CLASSIFICATION_TYPE":"U","MEAN_MOTION_DDOT":"0.0000000000000","EPOCH":"2021-12-19T17:00:26.407008","REV_AT_EPOCH":"7560","EPHEMERIS_TYPE":"0","RCS_SIZE":"LARGE","OBJECT_ID":"2020-057AQ","TIME_SYSTEM":"UTC","ECCENTRICITY":"0.00018550","ARG_OF_PERICENTER":"53.8739","BSTAR":"-0.00001611000000","COUNTRY_CODE":"US","SITE":"AFETR","TLE_LINE1":"1 46155U 20057AQ  21353.70863897 -.00000522  00000-0 -16110-4 0  9991","TLE_LINE2":"2 46155  53.0547 354.3496 0001855  53.8739 306.2421 15.06392496 75606","PERIOD":"95.593","OBJECT_NAME":"STARLINK-1667","CENTER_NAME":"EARTH","GP_ID":"192039622","MEAN_MOTION_DOT":"-0.00000522","DECAY_DATE":null,"MEAN_MOTION":"15.06392496","ELEMENT_SET_NO":"999","FILE":"3244825","RA_OF_ASC_NODE":"354.3496"},{"LAUNCH_DATE":"2020-08-18","INCLINATION":"53.0548","MEAN_ELEMENT_THEORY":"SGP4","MEAN_ANOMALY":"299.5861","APOAPSIS":"548.289","OBJECT_TYPE":"PAYLOAD","NORAD_CAT_ID":"46156","REF_FRAME":"TEME","OBJECT_ID":"2020-057AR","ECCENTRICITY":"0.00015570","ARG_OF_PERICENTER":"60.5283","TIME_SYSTEM":"UTC","RCS_SIZE":"LARGE","EPHEMERIS_TYPE":"0","REV_AT_EPOCH":"7534","EPOCH":"2021-12-19T18:22:42.248928","MEAN_MOTION_DDOT":"0.0000000000000","CLASSIFICATION_TYPE":"U","PERIAPSIS":"546.133","SEMIMAJOR_AXIS":"6925.346","TLE_LINE2":"2 46156  53.0548  14.0939 0001557  60.5283 299.5861 15.06400896 75345","TLE_LINE1":"1 46156U 20057AR  21353.76576677  .00000820  00000-0  73930-4 0  9997","SITE":"AFETR","BSTAR":"0.00007393000000","COUNTRY_CODE":"US","FILE":"3244825","RA_OF_ASC_NODE":"14.0939","ELEMENT_SET_NO":"999","MEAN_MOTION":"15.06400896","DECAY_DATE":null,"MEAN_MOTION_DOT":"0.00000820","GP_ID":"192039372","CENTER_NAME":"EARTH","PERIOD":"95.592","OBJECT_NAME":"STARLINK-1545"},{"TLE_LINE2":"2 46157  53.0564 355.3378 0001812  54.7622 305.3536 15.06398413 74994","TLE_LINE1":"1 46157U 20057AS  21353.48747994  .00001361  00000-0  11024-3 0  9995","SITE":"AFETR","BSTAR":"0.00011024000000","COUNTRY_CODE":"US","RA_OF_ASC_NODE":"355.3378","FILE":"3244817","ELEMENT_SET_NO":"999","MEAN_MOTION":"15.06398413","DECAY_DATE":null,"MEAN_MOTION_DOT":"0.00001361","GP_ID":"192018990","CENTER_NAME":"EARTH","OBJECT_NAME":"STARLINK-1587","PERIOD":"95.592","MEAN_ELEMENT_THEORY":"SGP4","LAUNCH_DATE":"2020-08-18","INCLINATION":"53.0564","MEAN_ANOMALY":"305.3536","OBJECT_TYPE":"PAYLOAD","APOAPSIS":"548.473","REF_FRAME":"TEME","NORAD_CAT_ID":"46157","TIME_SYSTEM":"UTC","OBJECT_ID":"2020-057AS","ECCENTRICITY":"0.00018120","ARG_OF_PERICENTER":"54.7622","RCS_SIZE":"LARGE","EPHEMERIS_TYPE":"0","REV_AT_EPOCH":"7499","EPOCH":"2021-12-19T11:41:58.266816","MEAN_MOTION_DDOT":"0.0000000000000","PERIAPSIS":"545.964","CLASSIFICATION_TYPE":"U","SEMIMAJOR_AXIS":"6925.353"},{"TLE_LINE1":"1 46158U 20057AT  21353.48378154  .00000598  00000-0  59039-4 0  9994","TLE_LINE2":"2 46158  53.0559 355.3642 0001801  60.6121 299.5048 15.06411725 75592","COUNTRY_CODE":"US","BSTAR":"0.00005903900000","SITE":"AFETR","MEAN_MOTION":"15.06411725","ELEMENT_SET_NO":"999","RA_OF_ASC_NODE":"355.3642","FILE":"3244588","OBJECT_NAME":"STARLINK-1589","PERIOD":"95.591","CENTER_NAME":"EARTH","GP_ID":"192009536","DECAY_DATE":null,"MEAN_MOTION_DOT":"0.00000598","MEAN_ANOMALY":"299.5048","LAUNCH_DATE":"2020-08-18","MEAN_ELEMENT_THEORY":"SGP4","INCLINATION":"53.0559","REF_FRAME":"TEME","NORAD_CAT_ID":"46158","OBJECT_TYPE":"PAYLOAD","APOAPSIS":"548.425","REV_AT_EPOCH":"7559","EPHEMERIS_TYPE":"0","RCS_SIZE":"LARGE","ECCENTRICITY":"0.00018010","ARG_OF_PERICENTER":"60.6121","OBJECT_ID":"2020-057AT","TIME_SYSTEM":"UTC","SEMIMAJOR_AXIS":"6925.313","CLASSIFICATION_TYPE":"U","PERIAPSIS":"545.930","MEAN_MOTION_DDOT":"0.0000000000000","EPOCH":"2021-12-19T11:36:38.725056"},{"PERIOD":"95.592","OBJECT_NAME":"STARLINK-1595","CENTER_NAME":"EARTH","GP_ID":"192039122","DECAY_DATE":null,"MEAN_MOTION_DOT":"0.00001766","MEAN_MOTION":"15.06405732","ELEMENT_SET_NO":"999","FILE":"3244825","RA_OF_ASC_NODE":"33.6973","BSTAR":"0.00013742000000","COUNTRY_CODE":"US","SITE":"AFETR","TLE_LINE1":"1 46159U 20057AU  21353.85607524  .00001766  00000-0  13742-3 0  9990","TLE_LINE2":"2 46159  53.0546  33.6973 0001627  75.6375 284.4794 15.06405732 75081","SEMIMAJOR_AXIS":"6925.331","PERIAPSIS":"546.069","CLASSIFICATION_TYPE":"U","MEAN_MOTION_DDOT":"0.0000000000000","EPOCH":"2021-12-19T20:32:44.900736","REV_AT_EPOCH":"7508","EPHEMERIS_TYPE":"0","RCS_SIZE":"LARGE","ECCENTRICITY":"0.00016270","OBJECT_ID":"2020-057AU","TIME_SYSTEM":"UTC","ARG_OF_PERICENTER":"75.6375","NORAD_CAT_ID":"46159","REF_FRAME":"TEME","APOAPSIS":"548.323","OBJECT_TYPE":"PAYLOAD","MEAN_ANOMALY":"284.4794","LAUNCH_DATE":"2020-08-18","INCLINATION":"53.0546","MEAN_ELEMENT_THEORY":"SGP4"},{"TLE_LINE2":"2 46160  53.0555  14.9204 0001662  55.7075 304.4071 15.06396540 75310","TLE_LINE1":"1 46160U 20057AV  21353.58147054  .00000662  00000-0  63348-4 0  9991","SITE":"AFETR","BSTAR":"0.00006334800000","COUNTRY_CODE":"US","RA_OF_ASC_NODE":"14.9204","FILE":"3244825","MEAN_MOTION":"15.06396540","ELEMENT_SET_NO":"999","MEAN_MOTION_DOT":"0.00000662","DECAY_DATE":null,"OBJECT_NAME":"STARLINK-1598","PERIOD":"95.592","GP_ID":"192039873","CENTER_NAME":"EARTH","MEAN_ELEMENT_THEORY":"SGP4","LAUNCH_DATE":"2020-08-18","INCLINATION":"53.0555","MEAN_ANOMALY":"304.4071","OBJECT_TYPE":"PAYLOAD","APOAPSIS":"548.375","REF_FRAME":"TEME","NORAD_CAT_ID":"46160","RCS_SIZE":"LARGE","ECCENTRICITY":"0.00016620","OBJECT_ID":"2020-057AV","TIME_SYSTEM":"UTC","ARG_OF_PERICENTER":"55.7075","REV_AT_EPOCH":"7531","EPHEMERIS_TYPE":"0","MEAN_MOTION_DDOT":"0.0000000000000","EPOCH":"2021-12-19T13:57:19.054656","SEMIMAJOR_AXIS":"6925.359","CLASSIFICATION_TYPE":"U","PERIAPSIS":"546.073"},{"REF_FRAME":"TEME","NORAD_CAT_ID":"46161","OBJECT_TYPE":"PAYLOAD","APOAPSIS":"548.237","MEAN_ANOMALY":"299.1521","MEAN_ELEMENT_THEORY":"SGP4","LAUNCH_DATE":"2020-08-18","INCLINATION":"53.0555","PERIAPSIS":"546.145","CLASSIFICATION_TYPE":"U","SEMIMAJOR_AXIS":"6925.326","EPOCH":"2021-12-19T18:12:04.558176","MEAN_MOTION_DDOT":"0.0000000000000","EPHEMERIS_TYPE":"0","REV_AT_EPOCH":"7534","ECCENTRICITY":"0.00015100","TIME_SYSTEM":"UTC","ARG_OF_PERICENTER":"60.9619","OBJECT_ID":"2020-057AW","RCS_SIZE":"LARGE","COUNTRY_CODE":"US","BSTAR":"0.00009031300000","SITE":"AFETR","TLE_LINE1":"1 46161U 20057AW  21353.75838609  .00001064  00000-0  90313-4 0  9993","TLE_LINE2":"2 46161  53.0555  14.1247 0001510  60.9619 299.1521 15.06407360 75340","CENTER_NAME":"EARTH","GP_ID":"192038621","OBJECT_NAME":"STARLINK-1600","PERIOD":"95.592","MEAN_MOTION_DOT":"0.00001064","DECAY_DATE":null,"ELEMENT_SET_NO":"999","MEAN_MOTION":"15.06407360","RA_OF_ASC_NODE":"14.1247","FILE":"3244825"},{"BSTAR":"0.00009355400000","COUNTRY_CODE":"US","SITE":"AFETR","TLE_LINE1":"1 46162U 20057AX  21353.76207584  .00001112  00000-0  93554-4 0  9991","TLE_LINE2":"2 46162  53.0552  14.1051 0001630  57.4998 302.6149 15.06398273 75354","CENTER_NAME":"EARTH","GP_ID":"192038871","PERIOD":"95.592","OBJECT_NAME":"STARLINK-1603","DECAY_DATE":null,"MEAN_MOTION_DOT":"0.00001112","ELEMENT_SET_NO":"999","MEAN_MOTION":"15.06398273","FILE":"3244825","RA_OF_ASC_NODE":"14.1051","NORAD_CAT_ID":"46162","REF_FRAME":"TEME","APOAPSIS":"548.348","OBJECT_TYPE":"PAYLOAD","MEAN_ANOMALY":"302.6149","LAUNCH_DATE":"2020-08-18","MEAN_ELEMENT_THEORY":"SGP4","INCLINATION":"53.0552","PERIAPSIS":"546.090","CLASSIFICATION_TYPE":"U","SEMIMAJOR_AXIS":"6925.354","EPOCH":"2021-12-19T18:17:23.352576","MEAN_MOTION_DDOT":"0.0000000000000","EPHEMERIS_TYPE":"0","REV_AT_EPOCH":"7535","ECCENTRICITY":"0.00016300","TIME_SYSTEM":"UTC","OBJECT_ID":"2020-057AX","ARG_OF_PERICENTER":"57.4998","RCS_SIZE":"LARGE"}];
